PLEIADES 1A             
1 38012U 11076F   26204.83688905  .00000244  00000+0  62379-4 0  9990
2 38012  98.1961 279.4445 0001575  77.3255  32.2280 14.58550245777335
PLEIADES 1B             
1 39019U 12068A   26204.85008035  .00000179  00000+0  48408-4 0  9996
2 39019  98.1932 279.3937 0001466  76.5991 283.5371 14.58537543726199
