{"fetched_at":"2026-07-24T07:06:44.747Z","source":"https://celestrak.org/NORAD/elements/gp.php?NAME=PLEIADES&FORMAT=JSON","constellation":"pleiades","records":[{"OBJECT_NAME":"PLEIADES 1A","OBJECT_ID":"2011-076F","EPOCH":"2026-07-23T20:05:07.213920","CLASSIFICATION_TYPE":"U","MEAN_MOTION":14.58550245,"ECCENTRICITY":0.0001575,"INCLINATION":98.1961,"RA_OF_ASC_NODE":279.4445,"ARG_OF_PERICENTER":77.3255,"MEAN_ANOMALY":32.228,"EPHEMERIS_TYPE":0,"NORAD_CAT_ID":38012,"ELEMENT_SET_NO":999,"REV_AT_EPOCH":77733,"BSTAR":0.000062379,"MEAN_MOTION_DOT":0.00000244,"MEAN_MOTION_DDOT":0},{"OBJECT_NAME":"PLEIADES 1B","OBJECT_ID":"2012-068A","EPOCH":"2026-07-23T20:24:06.942240","CLASSIFICATION_TYPE":"U","MEAN_MOTION":14.58537543,"ECCENTRICITY":0.0001466,"INCLINATION":98.1932,"RA_OF_ASC_NODE":279.3937,"ARG_OF_PERICENTER":76.5991,"MEAN_ANOMALY":283.5371,"EPHEMERIS_TYPE":0,"NORAD_CAT_ID":39019,"ELEMENT_SET_NO":999,"REV_AT_EPOCH":72619,"BSTAR":0.000048408,"MEAN_MOTION_DOT":0.00000179,"MEAN_MOTION_DDOT":0}]}
